[
    {
        "Altitude(m)": 717079.4708188169,
        "Argument of Periapsis(deg)": 0.006834072711976239,
        "Eccentricity": 0.0,
        "Inclination(deg)": 45.0,
        "Latitude(deg)": -43.2131508690447,
        "Longitude(deg)": 45.407425100406655,
        "Mean Anomaly(deg)": -74.89827001151153,
        "RAAN(deg)": 214.9935488351251,
        "Satellite Name": "Constellation 1 963",
        "Satellite Number": 963,
        "Semi-Major Axis(m)": 7083131.272910544,
        "Time(s)": 114
    },
    {
        "Altitude(m)": 717073.1324476845,
        "Argument of Periapsis(deg)": 0.006894020718221645,
        "Eccentricity": 0.0,
        "Inclination(deg)": 45.0,
        "Latitude(deg)": -43.19784662311206,
        "Longitude(deg)": 45.48350565491765,
        "Mean Anomaly(deg)": -74.83756887126167,
        "RAAN(deg)": 214.99349224595952,
        "Satellite Name": "Constellation 1 963",
        "Satellite Number": 963,
        "Semi-Major Axis(m)": 7083131.272910544,
        "Time(s)": 115
    },
    {
        "Altitude(m)": 717066.7706476721,
        "Argument of Periapsis(deg)": 0.006953968724467052,
        "Eccentricity": 0.0,
        "Inclination(deg)": 45.0,
        "Latitude(deg)": -43.18248616792077,
        "Longitude(deg)": 45.559546158496865,
        "Mean Anomaly(deg)": -74.7768677310117,
        "RAAN(deg)": 214.99343565679396,
        "Satellite Name": "Constellation 1 963",
        "Satellite Number": 963,
        "Semi-Major Axis(m)": 7083131.272910544,
        "Time(s)": 116
    },
    {
        "Altitude(m)": 717060.3854421601,
        "Argument of Periapsis(deg)": 0.007013916730712457,
        "Eccentricity": 0.0,
        "Inclination(deg)": 45.0,
        "Latitude(deg)": -43.16706956102677,
        "Longitude(deg)": 45.63554650620698,
        "Mean Anomaly(deg)": -74.71616659076173,
        "RAAN(deg)": 214.99337906762838,
        "Satellite Name": "Constellation 1 963",
        "Satellite Number": 963,
        "Semi-Major Axis(m)": 7083131.272910544,
        "Time(s)": 117
    },
    {
        "Altitude(m)": 717053.9768546197,
        "Argument of Periapsis(deg)": 0.007073864736957864,
        "Eccentricity": 0.0,
        "Inclination(deg)": 45.0,
        "Latitude(deg)": -43.151596860122446,
        "Longitude(deg)": 45.71150659366545,
        "Mean Anomaly(deg)": -74.655465450512,
        "RAAN(deg)": 214.9933224784628,
        "Satellite Name": "Constellation 1 963",
        "Satellite Number": 963,
        "Semi-Major Axis(m)": 7083131.272910544,
        "Time(s)": 118
    },
    {
        "Altitude(m)": 717047.5449086012,
        "Argument of Periapsis(deg)": 0.0071338127432032696,
        "Eccentricity": 0.0,
        "Inclination(deg)": 45.0,
        "Latitude(deg)": -43.13606812303579,
        "Longitude(deg)": 45.78742614894889,
        "Mean Anomaly(deg)": -74.59476431026201,
        "RAAN(deg)": 214.99326588929725,
        "Satellite Name": "Constellation 1 963",
        "Satellite Number": 963,
        "Semi-Major Axis(m)": 7083131.272910544,
        "Time(s)": 119
    },
    {
        "Altitude(m)": 717041.0896277473,
        "Argument of Periapsis(deg)": 0.007193760749448674,
        "Eccentricity": 0.0,
        "Inclination(deg)": 45.0,
        "Latitude(deg)": -43.120483407729026,
        "Longitude(deg)": 45.863305404979066,
        "Mean Anomaly(deg)": -74.53406317001205,
        "RAAN(deg)": 214.99320930013167,
        "Satellite Name": "Constellation 1 963",
        "Satellite Number": 963,
        "Semi-Major Axis(m)": 7083131.272910544,
        "Time(s)": 120
    },
    {
        "Altitude(m)": 717034.6110357782,
        "Argument of Periapsis(deg)": 0.007253708755694079,
        "Eccentricity": 0.0,
        "Inclination(deg)": 45.0,
        "Latitude(deg)": -43.10484277229871,
        "Longitude(deg)": 45.939144090943074,
        "Mean Anomaly(deg)": -74.47336202976221,
        "RAAN(deg)": 214.99315271096611,
        "Satellite Name": "Constellation 1 963",
        "Satellite Number": 963,
        "Semi-Major Axis(m)": 7083131.272910544,
        "Time(s)": 121
    },
    {
        "Altitude(m)": 717028.109156498,
        "Argument of Periapsis(deg)": 0.0073136567619394854,
        "Eccentricity": 0.0,
        "Inclination(deg)": 45.0,
        "Latitude(deg)": -43.08914627497402,
        "Longitude(deg)": 46.01494210468125,
        "Mean Anomaly(deg)": -74.41266088951234,
        "RAAN(deg)": 214.9930961218005,
        "Satellite Name": "Constellation 1 963",
        "Satellite Number": 963,
        "Semi-Major Axis(m)": 7083131.272910544,
        "Time(s)": 122
    },
    {
        "Altitude(m)": 717021.5840137992,
        "Argument of Periapsis(deg)": 0.0073736047681848904,
        "Eccentricity": 0.0,
        "Inclination(deg)": 45.0,
        "Latitude(deg)": -43.07339397411609,
        "Longitude(deg)": 46.09069934459012,
        "Mean Anomaly(deg)": -74.35195974926239,
        "RAAN(deg)": 214.99303953263495,
        "Satellite Name": "Constellation 1 963",
        "Satellite Number": 963,
        "Semi-Major Axis(m)": 7083131.272910544,
        "Time(s)": 123
    },
    {
        "Altitude(m)": 717015.0356316674,
        "Argument of Periapsis(deg)": 0.007433552774430298,
        "Eccentricity": 0.0,
        "Inclination(deg)": 45.0,
        "Latitude(deg)": -43.05758592821717,
        "Longitude(deg)": 46.16641570962227,
        "Mean Anomaly(deg)": -74.29125860901252,
        "RAAN(deg)": 214.99298294346937,
        "Satellite Name": "Constellation 1 963",
        "Satellite Number": 963,
        "Semi-Major Axis(m)": 7083131.272910544,
        "Time(s)": 124
    },
    {
        "Altitude(m)": 717008.4640341549,
        "Argument of Periapsis(deg)": 0.007493500780675703,
        "Eccentricity": 0.0,
        "Inclination(deg)": 45.0,
        "Latitude(deg)": -43.04172219589962,
        "Longitude(deg)": 46.24209109928725,
        "Mean Anomaly(deg)": -74.23055746876267,
        "RAAN(deg)": 214.99292635430382,
        "Satellite Name": "Constellation 1 963",
        "Satellite Number": 963,
        "Semi-Major Axis(m)": 7083131.272910544,
        "Time(s)": 125
    },
    {
        "Altitude(m)": 717001.869245414,
        "Argument of Periapsis(deg)": 0.007553448786921108,
        "Eccentricity": 0.0,
        "Inclination(deg)": 45.0,
        "Latitude(deg)": -43.02580283591528,
        "Longitude(deg)": 46.31772524555495,
        "Mean Anomaly(deg)": -74.16985632851271,
        "RAAN(deg)": 214.99286976513827,
        "Satellite Name": "Constellation 1 963",
        "Satellite Number": 963,
        "Semi-Major Axis(m)": 7083131.272910544,
        "Time(s)": 126
    },
    {
        "Altitude(m)": 716995.251289672,
        "Argument of Periapsis(deg)": 0.007613396793166514,
        "Eccentricity": 0.0,
        "Inclination(deg)": 45.0,
        "Latitude(deg)": -43.009827907143716,
        "Longitude(deg)": 46.39331838524222,
        "Mean Anomaly(deg)": -74.10915518826285,
        "RAAN(deg)": 214.99281317597266,
        "Satellite Name": "Constellation 1 963",
        "Satellite Number": 963,
        "Semi-Major Axis(m)": 7083131.272910544,
        "Time(s)": 127
    },
    {
        "Altitude(m)": 716988.6101912477,
        "Argument of Periapsis(deg)": 0.007673344799411918,
        "Eccentricity": 0.0,
        "Inclination(deg)": 45.0,
        "Latitude(deg)": -42.99379746859259,
        "Longitude(deg)": 46.468870251433096,
        "Mean Anomaly(deg)": -74.04845404801299,
        "RAAN(deg)": 214.9927565868071,
        "Satellite Name": "Constellation 1 963",
        "Satellite Number": 963,
        "Semi-Major Axis(m)": 7083131.272910544,
        "Time(s)": 128
    },
    {
        "Altitude(m)": 716981.9459745334,
        "Argument of Periapsis(deg)": 0.007733292805657325,
        "Eccentricity": 0.0,
        "Inclination(deg)": 45.0,
        "Latitude(deg)": -42.97771157939592,
        "Longitude(deg)": 46.54438074586584,
        "Mean Anomaly(deg)": -73.98775290776302,
        "RAAN(deg)": 214.99269999764155,
        "Satellite Name": "Constellation 1 963",
        "Satellite Number": 963,
        "Semi-Major Axis(m)": 7083131.272910544,
        "Time(s)": 129
    },
    {
        "Altitude(m)": 716975.2586640208,
        "Argument of Periapsis(deg)": 0.00779324081190273,
        "Eccentricity": 0.0,
        "Inclination(deg)": 45.0,
        "Latitude(deg)": -42.961570298813406,
        "Longitude(deg)": 46.61984977083584,
        "Mean Anomaly(deg)": -73.92705176751316,
        "RAAN(deg)": 214.99264340847597,
        "Satellite Name": "Constellation 1 963",
        "Satellite Number": 963,
        "Semi-Major Axis(m)": 7083131.272910544,
        "Time(s)": 130
    },
    {
        "Altitude(m)": 716968.5482842721,
        "Argument of Periapsis(deg)": 0.007853188818148135,
        "Eccentricity": 0.0,
        "Inclination(deg)": 45.0,
        "Latitude(deg)": -42.945373686229466,
        "Longitude(deg)": 46.69527722919666,
        "Mean Anomaly(deg)": -73.8663506272632,
        "RAAN(deg)": 214.99258681931042,
        "Satellite Name": "Constellation 1 963",
        "Satellite Number": 963,
        "Semi-Major Axis(m)": 7083131.272910544,
        "Time(s)": 131
    },
    {
        "Altitude(m)": 716961.8148599392,
        "Argument of Periapsis(deg)": 0.007913136824393542,
        "Eccentricity": 0.0,
        "Inclination(deg)": 45.0,
        "Latitude(deg)": -42.92912180115246,
        "Longitude(deg)": 46.770663024359074,
        "Mean Anomaly(deg)": -73.80564948701334,
        "RAAN(deg)": 214.9925302301448,
        "Satellite Name": "Constellation 1 963",
        "Satellite Number": 963,
        "Semi-Major Axis(m)": 7083131.272910544,
        "Time(s)": 132
    }
]